{
  "norad_id": 59674,
  "name": "STARLINK-31875",
  "history": [
    {
      "epoch": "2026-03-28T20:13:21.077184Z",
      "apogee_km": 483.96028969967665,
      "perigee_km": 482.09556229608916,
      "latitude_deg": -2.4191649303054824e-05,
      "longitude_deg": 160.4615072548341,
      "height_km": 482.73443452451465,
      "semi_major_axis_km": 6861.164925997883,
      "eccentricity": 0.00013589,
      "inclination_deg": 43.0026,
      "raan_deg": 290.0566,
      "arg_perigee_deg": 274.3339,
      "mean_anomaly_deg": 85.7357,
      "mean_motion_rev_day": 15.2758707
    },
    {
      "epoch": "2026-03-29T21:19:51.816288Z",
      "apogee_km": 484.13635539782354,
      "perigee_km": 481.96794517876606,
      "latitude_deg": -3.15960796274701e-05,
      "longitude_deg": 136.89444910899454,
      "height_km": 482.6716467971046,
      "semi_major_axis_km": 6861.1891502882945,
      "eccentricity": 0.00015802,
      "inclination_deg": 43.003,
      "raan_deg": 284.1488,
      "arg_perigee_deg": 278.3634,
      "mean_anomaly_deg": 81.7038,
      "mean_motion_rev_day": 15.2757898
    },
    {
      "epoch": "2026-03-30T13:01:25.966560Z",
      "apogee_km": 484.1571819730816,
      "perigee_km": 481.9676360176836,
      "latitude_deg": 4.29099164761102e-06,
      "longitude_deg": -102.8351859367749,
      "height_km": 482.67083268782073,
      "semi_major_axis_km": 6861.199408995382,
      "eccentricity": 0.00015956,
      "inclination_deg": 43.0022,
      "raan_deg": 280.4559,
      "arg_perigee_deg": 278.8639,
      "mean_anomaly_deg": 81.2032,
      "mean_motion_rev_day": 15.27575554
    },
    {
      "epoch": "2026-03-30T19:18:03.515904Z",
      "apogee_km": 484.06293948821894,
      "perigee_km": 482.0866360448699,
      "latitude_deg": -1.7562086429935907e-05,
      "longitude_deg": 161.27314424650012,
      "height_km": 482.7100640792551,
      "semi_major_axis_km": 6861.211787766544,
      "eccentricity": 0.00014402,
      "inclination_deg": 43.0014,
      "raan_deg": 278.9785,
      "arg_perigee_deg": 278.2402,
      "mean_anomaly_deg": 81.8286,
      "mean_motion_rev_day": 15.2757142
    },
    {
      "epoch": "2026-03-31T18:50:24.011232Z",
      "apogee_km": 483.9794161145983,
      "perigee_km": 482.1310109322749,
      "latitude_deg": -7.946277531706873e-06,
      "longitude_deg": 161.6823451620608,
      "height_km": 482.6878673240836,
      "semi_major_axis_km": 6861.192213523436,
      "eccentricity": 0.0001347,
      "inclination_deg": 43.001,
      "raan_deg": 273.4398,
      "arg_perigee_deg": 278.9715,
      "mean_anomaly_deg": 81.0984,
      "mean_motion_rev_day": 15.27577957
    },
    {
      "epoch": "2026-04-01T18:22:44.952384Z",
      "apogee_km": 483.87400559297566,
      "perigee_km": 482.2232043364211,
      "latitude_deg": 1.0623777392628697e-05,
      "longitude_deg": 162.09129285835468,
      "height_km": 482.7212459919861,
      "semi_major_axis_km": 6861.185604964698,
      "eccentricity": 0.0001203,
      "inclination_deg": 43.0015,
      "raan_deg": 267.9027,
      "arg_perigee_deg": 277.2432,
      "mean_anomaly_deg": 82.8283,
      "mean_motion_rev_day": 15.27580164
    },
    {
      "epoch": "2026-04-02T19:29:14.734176Z",
      "apogee_km": 483.75552475475433,
      "perigee_km": 482.3060344496362,
      "latitude_deg": -2.738677565414139e-05,
      "longitude_deg": 138.52760225935282,
      "height_km": 482.7215060968466,
      "semi_major_axis_km": 6861.167779602195,
      "eccentricity": 0.00010563,
      "inclination_deg": 43.0007,
      "raan_deg": 261.9943,
      "arg_perigee_deg": 276.7965,
      "mean_anomaly_deg": 83.2766,
      "mean_motion_rev_day": 15.27586117
    },
    {
      "epoch": "2026-04-03T17:27:25.676928Z",
      "apogee_km": 483.75321170551797,
      "perigee_km": 482.30001725197053,
      "latitude_deg": 4.354109072435286e-05,
      "longitude_deg": 162.90971939695868,
      "height_km": 482.8333989486231,
      "semi_major_axis_km": 6861.1636144787435,
      "eccentricity": 0.0001059,
      "inclination_deg": 43.0005,
      "raan_deg": 256.8242,
      "arg_perigee_deg": 267.6078,
      "mean_anomaly_deg": 92.4653,
      "mean_motion_rev_day": 15.27587508
    },
    {
      "epoch": "2026-04-04T12:17:17.549088Z",
      "apogee_km": 483.8075400897669,
      "perigee_km": 482.2116373932258,
      "latitude_deg": 3.178369294830435e-05,
      "longitude_deg": -124.76169244370722,
      "height_km": 482.82791667813655,
      "semi_major_axis_km": 6861.146588741496,
      "eccentricity": 0.0001163,
      "inclination_deg": 43.001,
      "raan_deg": 252.3923,
      "arg_perigee_deg": 267.0025,
      "mean_anomaly_deg": 93.0694,
      "mean_motion_rev_day": 15.27593194
    },
    {
      "epoch": "2026-04-05T10:15:31.881312Z",
      "apogee_km": 483.9650814413835,
      "perigee_km": 482.25237728242064,
      "latitude_deg": -4.966427218656471e-05,
      "longitude_deg": -100.39520057681966,
      "height_km": 482.9931654647636,
      "semi_major_axis_km": 6861.245729361902,
      "eccentricity": 0.00012481,
      "inclination_deg": 42.9998,
      "raan_deg": 247.2209,
      "arg_perigee_deg": 262.7615,
      "mean_anomaly_deg": 97.3094,
      "mean_motion_rev_day": 15.27560085
    },
    {
      "epoch": "2026-04-06T11:22:01.248384Z",
      "apogee_km": 483.64545749643366,
      "perigee_km": 482.46780222180496,
      "latitude_deg": 1.6054670849844773e-05,
      "longitude_deg": -123.95395088222956,
      "height_km": 483.0845044375702,
      "semi_major_axis_km": 6861.193629859119,
      "eccentricity": 8.582e-05,
      "inclination_deg": 43.003,
      "raan_deg": 241.3156,
      "arg_perigee_deg": 244.7238,
      "mean_anomaly_deg": 115.3525,
      "mean_motion_rev_day": 15.27577484
    },
    {
      "epoch": "2026-04-07T17:11:00.411072Z",
      "apogee_km": 484.1159510105181,
      "perigee_km": 482.2400674869896,
      "latitude_deg": -4.361135864904045e-05,
      "longitude_deg": 140.55655344852178,
      "height_km": 482.8656250172271,
      "semi_major_axis_km": 6861.315009248753,
      "eccentricity": 0.0001367,
      "inclination_deg": 43.0007,
      "raan_deg": 234.2972,
      "arg_perigee_deg": 275.4543,
      "mean_anomaly_deg": 84.6152,
      "mean_motion_rev_day": 15.27536949
    },
    {
      "epoch": "2026-04-08T15:09:11.397024Z",
      "apogee_km": 483.66102373051035,
      "perigee_km": 482.4958521248409,
      "latitude_deg": -2.2098642272425186e-05,
      "longitude_deg": 164.9416345374176,
      "height_km": 482.8476000381722,
      "semi_major_axis_km": 6861.215437927675,
      "eccentricity": 8.491e-05,
      "inclination_deg": 43.0015,
      "raan_deg": 229.1303,
      "arg_perigee_deg": 270.7115,
      "mean_anomaly_deg": 89.3639,
      "mean_motion_rev_day": 15.27570201
    },
    {
      "epoch": "2026-04-09T16:15:40.955904Z",
      "apogee_km": 483.84164258519286,
      "perigee_km": 482.2745456256989,
      "latitude_deg": 1.5643449870208488e-05,
      "longitude_deg": 141.3785520983667,
      "height_km": 482.8337202409513,
      "semi_major_axis_km": 6861.195094105446,
      "eccentricity": 0.0001142,
      "inclination_deg": 43.0026,
      "raan_deg": 223.2215,
      "arg_perigee_deg": 270.0838,
      "mean_anomaly_deg": 89.9883,
      "mean_motion_rev_day": 15.27576995
    },
    {
      "epoch": "2026-04-09T16:15:40.956768Z",
      "apogee_km": 483.84170820243344,
      "perigee_km": 482.2744740197213,
      "latitude_deg": 1.6429660120621222e-05,
      "longitude_deg": 141.3785493268831,
      "height_km": 482.8337171462296,
      "semi_major_axis_km": 6861.195091111077,
      "eccentricity": 0.00011421,
      "inclination_deg": 43.0026,
      "raan_deg": 223.2215,
      "arg_perigee_deg": 270.0838,
      "mean_anomaly_deg": 89.9883,
      "mean_motion_rev_day": 15.27576996
    },
    {
      "epoch": "2026-04-11T16:54:32.579136Z",
      "apogee_km": 483.82468393596446,
      "perigee_km": 482.31796258817667,
      "latitude_deg": -2.1531298450194603e-05,
      "longitude_deg": 118.21822229495015,
      "height_km": 483.0859715094614,
      "semi_major_axis_km": 6861.208323262071,
      "eccentricity": 0.0001098,
      "inclination_deg": 43.0037,
      "raan_deg": 211.7742,
      "arg_perigee_deg": 251.5942,
      "mean_anomaly_deg": 108.479,
      "mean_motion_rev_day": 15.27572577
    },
    {
      "epoch": "2026-04-12T14:52:43.260096Z",
      "apogee_km": 483.9081847888756,
      "perigee_km": 482.1852043394965,
      "latitude_deg": 1.3592325467863634e-05,
      "longitude_deg": 142.60189418013766,
      "height_km": 483.2059655489405,
      "semi_major_axis_km": 6861.183694564185,
      "eccentricity": 0.00012556,
      "inclination_deg": 43.0033,
      "raan_deg": 206.6046,
      "arg_perigee_deg": 243.6415,
      "mean_anomaly_deg": 116.4308,
      "mean_motion_rev_day": 15.27580802
    },
    {
      "epoch": "2026-04-14T13:57:25.015392Z",
      "apogee_km": 483.98495491563335,
      "perigee_km": 482.09127058451486,
      "latitude_deg": 5.183570658143714e-05,
      "longitude_deg": 143.4164201763789,
      "height_km": 483.06666610489583,
      "semi_major_axis_km": 6861.175112750074,
      "eccentricity": 0.000138,
      "inclination_deg": 43.0031,
      "raan_deg": 195.5265,
      "arg_perigee_deg": 254.5896,
      "mean_anomaly_deg": 105.4804,
      "mean_motion_rev_day": 15.27583668
    },
    {
      "epoch": "2026-04-15T13:29:45.682656Z",
      "apogee_km": 484.0288928165819,
      "perigee_km": 482.07619827191866,
      "latitude_deg": 6.210259810190324e-06,
      "longitude_deg": 143.82314425362438,
      "height_km": 483.2895236142659,
      "semi_major_axis_km": 6861.18954554425,
      "eccentricity": 0.0001423,
      "inclination_deg": 43.0024,
      "raan_deg": 189.9861,
      "arg_perigee_deg": 241.8784,
      "mean_anomaly_deg": 118.1924,
      "mean_motion_rev_day": 15.27578848
    }
  ]
}